NORAD_CAT_ID,OBJECT_NAME,OBJECT_TYPE,EPOCH,MEAN_MOTION,ECCENTRICITY,INCLINATION,RA_OF_ASC_NODE,ARG_OF_PERICENTER,MEAN_ANOMALY,BSTAR,MEAN_MOTION_DOT,MEAN_MOTION_DDOT,TLE_LINE0,TLE_LINE1,TLE_LINE2,SEMIMAJOR_AXIS,PERIOD,APOGEE,PERIGEE,DECAYED
51972.0,STARLINK-3671,PAYLOAD,2024-03-26 10:58:59,15.06388716,0.0001567,53.0568,352.7083,108.7027,251.4133,0.0024725,0.00036728,0.0,0 STARLINK-3671,1 51972U 22025S   24086.45763787  .00036728  00000-0  24725-2 0  9990,2 51972  53.0568 352.7083 0001567 108.7027 251.4133 15.06388716113420,6925.383,95.593,548.333,546.163,0.0
51972.0,STARLINK-3671,PAYLOAD,2024-03-26 22:07:46,15.06408664,0.000142,53.0553,350.6225,114.9949,245.1187,0.0017878,0.00026454,0.0,0 STARLINK-3671,1 51972U 22025S   24086.92206429  .00026454  00000-0  17878-2 0  9993,2 51972  53.0553 350.6225 0001420 114.9949 245.1187 15.06408664113490,6925.322,95.592,548.17,546.204,0.0
51972.0,STARLINK-3671,PAYLOAD,2024-03-27 10:52:04,15.06415792,0.0001367,53.0532,348.2381,126.9326,233.1788,0.00092487,0.00013527,0.0,0 STARLINK-3671,1 51972U 22025S   24087.45283379  .00013527  00000-0  92487-3 0  9998,2 51972  53.0532 348.2381 0001367 126.9326 233.1788 15.06415792114670,6925.3,95.591,548.112,546.218,0.0
51972.0,STARLINK-3671,PAYLOAD,2024-03-27 22:00:50,15.06418575,0.0001493,53.0538,346.1529,124.4604,235.6526,0.00068008,9.868e-05,0.0,0 STARLINK-3671,1 51972U 22025S   24087.91725691  .00009868  00000-0  68008-3 0  9992,2 51972  53.0538 346.1529 0001493 124.4604 235.6526 15.06418575113644,6925.292,95.591,548.191,546.123,0.0
51972.0,STARLINK-3671,PAYLOAD,2024-03-28 02:47:27,15.0642141,0.0001594,53.0566,345.2585,118.3422,241.7728,0.00062654,9.068e-05,0.0,0 STARLINK-3671,1 51972U 22025S   24088.11629433  .00009068  00000-0  62654-3 0  9995,2 51972  53.0566 345.2585 0001594 118.3422 241.7728 15.06421410114778,6925.283,95.591,548.252,546.044,0.0
51972.0,STARLINK-3671,PAYLOAD,2024-03-28 10:45:10,15.06404832,0.000195,53.0544,343.7719,95.6499,264.4712,0.00012798,1.625e-05,0.0,0 STARLINK-3671,1 51972U 22025S   24088.44803501  .00001625  00000-0  12798-3 0  9996,2 51972  53.0544 343.7719 0001950  95.6499 264.4712 15.06404832114823,6925.334,95.592,548.549,545.848,0.0
51972.0,STARLINK-3671,PAYLOAD,2024-03-28 23:29:28,15.06406482,0.000146,53.0547,341.3893,101.5834,258.5319,7.354e-05,8.14e-06,0.0,0 STARLINK-3671,1 51972U 22025S   24088.97880494  .00000814  00000-0  73540-4 0  9992,2 51972  53.0547 341.3893 0001460 101.5834 258.5319 15.06406482113806,6925.329,95.592,548.205,546.183,0.0
51972.0,STARLINK-3671,PAYLOAD,2024-03-29 02:40:33,15.06407159,0.0001526,53.0555,340.7916,105.0011,255.1147,0.00010876,1.339e-05,0.0,0 STARLINK-3671,1 51972U 22025S   24089.11149805  .00001339  00000-0  10876-3 0  9998,2 51972  53.0555 340.7916 0001526 105.0011 255.1147 15.06407159113829,6925.327,95.592,548.248,546.135,0.0
51972.0,STARLINK-3671,PAYLOAD,2024-03-29 23:22:34,15.06406577,0.0001184,53.0559,336.9191,84.0078,276.1046,0.00030733,4.3e-05,0.0,0 STARLINK-3671,1 51972U 22025S   24089.97400711  .00004300  00000-0  30733-3 0  9993,2 51972  53.0559 336.9191 0001184  84.0078 276.1046 15.06406577113952,6925.328,95.592,548.013,546.373,0.0
51972.0,STARLINK-3671,PAYLOAD,2024-03-30 02:33:38,15.06407298,0.0001169,53.0558,336.3241,79.3983,280.7137,0.00051916,7.461e-05,0.0,0 STARLINK-3671,1 51972U 22025S   24090.10670113  .00007461  00000-0  51916-3 0  9992,2 51972  53.0558 336.3241 0001169  79.3983 280.7137 15.06407298115074,6925.326,95.592,548.001,546.382,0.0
51972.0,STARLINK-3671,PAYLOAD,2024-03-30 08:55:48,15.06400121,0.0001121,53.0549,335.1312,69.516,290.5949,0.00020503,2.774e-05,0.0,0 STARLINK-3671,1 51972U 22025S   24090.37208972  .00002774  00000-0  20503-3 0  9991,2 51972  53.0549 335.1312 0001121  69.5160 290.5949 15.06400121115119,6925.348,95.592,547.99,546.437,0.0
51972.0,STARLINK-3671,PAYLOAD,2024-03-30 21:40:08,15.06394208,0.0001488,53.0569,332.7487,79.4497,280.666,0.00011622,1.45e-05,0.0,0 STARLINK-3671,1 51972U 22025S   24090.90287043  .00001450  00000-0  11622-3 0  9998,2 51972  53.0569 332.7487 0001488  79.4497 280.6660 15.06394208115192,6925.366,95.593,548.262,546.201,0.0
51972.0,STARLINK-3671,PAYLOAD,2024-03-30 23:15:40,15.06397632,0.0001167,53.0552,332.4534,85.2463,274.8659,0.00017973,2.397e-05,0.0,0 STARLINK-3671,1 51972U 22025S   24090.96921525  .00002397  00000-0  17973-3 0  9990,2 51972  53.0552 332.4534 0001167  85.2463 274.8659 15.06397632114103,6925.356,95.592,548.029,546.413,0.0
51972.0,STARLINK-3671,PAYLOAD,2024-03-31 08:48:54,15.06407232,0.0001302,53.0558,330.6673,87.5104,272.6034,0.00034132,4.807e-05,0.0,0 STARLINK-3671,1 51972U 22025S   24091.36729342  .00004807  00000-0  34132-3 0  9992,2 51972  53.0558 330.6673 0001302  87.5104 272.6034 15.06407232115260,6925.326,95.592,548.093,546.29,0.0
51972.0,STARLINK-3671,PAYLOAD,2024-03-31 21:33:12,15.06410075,0.0001338,53.0562,328.285,84.6887,275.4255,0.00039364,5.588e-05,0.0,0 STARLINK-3671,1 51972U 22025S   24091.89806625  .00005588  00000-0  39364-3 0  9999,2 51972  53.0562 328.2850 0001338  84.6887 275.4255 15.06410075114242,6925.318,95.592,548.109,546.256,0.0
51972.0,STARLINK-3671,PAYLOAD,2024-04-01 15:04:08,15.06404384,0.000134,53.0528,325.0091,76.3564,283.7575,0.00021573,2.934e-05,0.0,0 STARLINK-3671,1 51972U 22025S   24092.62788182  .00002934  00000-0  21573-3 0  9993,2 51972  53.0528 325.0091 0001340  76.3564 283.7575 15.06404384114354,6925.335,95.592,548.128,546.272,0.0
51972.0,STARLINK-3671,PAYLOAD,2024-04-01 19:50:46,15.06400268,0.0001383,53.0532,324.1146,70.9718,289.1421,0.00011949,1.499e-05,0.0,0 STARLINK-3671,1 51972U 22025S   24092.82692373  .00001499  00000-0  11949-3 0  9992,2 51972  53.0532 324.1146 0001383  70.9718 289.1421 15.06400268115480,6925.348,95.592,548.171,546.255,0.0
51972.0,STARLINK-3671,PAYLOAD,2024-04-02 08:35:05,15.06399745,0.0001318,53.0552,321.7319,87.5631,272.5509,6.2848e-05,6.55e-06,0.0,0 STARLINK-3671,1 51972U 22025S   24093.35769869  .00000655  00000-0  62848-4 0  9994,2 51972  53.0552 321.7319 0001318  87.5631 272.5509 15.06399745114460,6925.349,95.592,548.127,546.302,0.0
51972.0,STARLINK-3671,PAYLOAD,2024-04-02 21:19:24,15.06399841,0.0001219,53.0556,319.3499,88.4998,271.6131,0.00011656,1.455e-05,0.0,0 STARLINK-3671,1 51972U 22025S   24093.88847320  .00001455  00000-0  11656-3 0  9990,2 51972  53.0556 319.3499 0001219  88.4998 271.6131 15.06399841115641,6925.349,95.592,548.058,546.37,0.0
51972.0,STARLINK-3671,PAYLOAD,2024-04-03 08:28:10,15.06396602,0.00013,53.0553,317.2644,82.3953,277.7183,8.0156e-05,9.13e-06,0.0,0 STARLINK-3671,1 51972U 22025S   24094.35290345  .00000913  00000-0  80156-4 0  9992,2 51972  53.0553 317.2644 0001300  82.3953 277.7183 15.06396602114614,6925.359,95.592,548.124,546.324,0.0
51972.0,STARLINK-3671,PAYLOAD,2024-04-03 21:12:29,15.06397874,0.0001289,53.0558,314.8812,97.0379,263.0756,0.00017175,2.278e-05,0.0,0 STARLINK-3671,1 51972U 22025S   24094.88367956  .00002278  00000-0  17175-3 0  9999,2 51972  53.0558 314.8812 0001289  97.0379 263.0756 15.06397874115796,6925.355,95.592,548.113,546.327,0.0
51972.0,STARLINK-3671,PAYLOAD,2024-04-04 00:23:34,15.06399607,0.0001213,53.0548,314.2853,97.8391,262.2735,0.00018902,2.535e-05,0.0,0 STARLINK-3671,1 51972U 22025S   24095.01637286  .00002535  00000-0  18902-3 0  9996,2 51972  53.0548 314.2853 0001213  97.8391 262.2735 15.06399607114718,6925.35,95.592,548.055,546.375,0.0
51972.0,STARLINK-3671,PAYLOAD,2024-04-04 21:05:35,15.06405312,0.0001196,53.0544,310.4128,92.0222,268.0904,0.00023546,3.228e-05,0.0,0 STARLINK-3671,1 51972U 22025S   24095.87887892  .00003228  00000-0  23546-3 0  9990,2 51972  53.0544 310.4128 0001196  92.0222 268.0904 15.06405312114844,6925.332,95.592,548.026,546.369,0.0
51972.0,STARLINK-3671,PAYLOAD,2024-04-05 06:38:49,15.06408732,0.0001166,53.0545,308.6259,90.6314,269.4808,0.00021244,2.885e-05,0.0,0 STARLINK-3671,1 51972U 22025S   24096.27695651  .00002885  00000-0  21244-3 0  9996,2 51972  53.0545 308.6259 0001166  90.6314 269.4808 15.06408732116009,6925.322,95.592,547.994,546.379,0.0
51972.0,STARLINK-3671,PAYLOAD,2024-04-05 14:36:31,15.064014,0.0001221,53.0542,307.1374,89.1635,270.9494,0.00016876,2.233e-05,0.0,0 STARLINK-3671,1 51972U 22025S   24096.60869464  .00002233  00000-0  16876-3 0  9990,2 51972  53.0542 307.1374 0001221  89.1635 270.9494 15.06401400114954,6925.344,95.592,548.055,546.364,0.0
51972.0,STARLINK-3671,PAYLOAD,2024-04-05 19:23:08,15.06402668,0.0001239,53.0542,306.2439,89.0287,271.0844,0.00016017,2.105e-05,0.0,0 STARLINK-3671,1 51972U 22025S   24096.80773395  .00002105  00000-0  16017-3 0  9994,2 51972  53.0542 306.2439 0001239  89.0287 271.0844 15.06402668116081,6925.34,95.592,548.063,546.347,0.0
51972.0,STARLINK-3671,PAYLOAD,2024-04-06 06:31:54,15.06402109,0.0001194,53.0537,304.1574,85.8386,274.2739,6.0607e-05,6.22e-06,0.0,0 STARLINK-3671,1 51972U 22025S   24097.27216057  .00000622  00000-0  60607-4 0  9990,2 51972  53.0537 304.1574 0001194  85.8386 274.2739 15.06402109115050,6925.342,95.592,548.034,546.38,0.0
51972.0,STARLINK-3671,PAYLOAD,2024-04-07 00:02:49,15.06411935,0.0001169,53.0532,300.8786,79.0896,281.0224,0.000153,1.999e-05,0.0,0 STARLINK-3671,1 51972U 22025S   24098.00196705  .00001999  00000-0  15300-3 0  9996,2 51972  53.0532 300.8786 0001169  79.0896 281.0224 15.06411935115160,6925.312,95.591,547.987,546.367,0.0
51972.0,STARLINK-3671,PAYLOAD,2024-04-07 20:44:51,15.06390041,0.0001061,53.0543,297.0076,95.3864,264.7246,-8.5643e-05,-1.556e-05,0.0,0 STARLINK-3671,1 51972U 22025S   24098.86448691 -.00001556  00000-0 -85643-4 0  9993,2 51972  53.0543 297.0076 0001061  95.3864 264.7246 15.06390041116390,6925.379,95.593,547.979,546.509,0.0
51972.0,STARLINK-3671,PAYLOAD,2024-04-08 12:40:15,15.06389259,6.82e-05,53.0544,294.0315,85.0917,275.015,2.5123e-05,9.3e-07,0.0,0 STARLINK-3671,1 51972U 22025S   24099.52795962  .00000093  00000-0  25123-4 0  9993,2 51972  53.0544 294.0315 0000682  85.0917 275.0150 15.06389259115394,6925.381,95.593,547.719,546.774,0.0
